[{"OBJECT_NAME":"STARLINK-36425","OBJECT_ID":"2026-008Y","EPOCH":"2026-02-22T02:11:28.445280","MEAN_MOTION":15.27600305,"ECCENTRICITY":0.0001656,"INCLINATION":42.9985,"RA_OF_ASC_NODE":293.5822,"ARG_OF_PERICENTER":242.5706,"MEAN_ANOMALY":117.4978,"EPHEMERIS_TYPE":0,"CLASSIFICATION_TYPE":"U","NORAD_CAT_ID":67467,"ELEMENT_SET_NO":999,"REV_AT_EPOCH":718,"BSTAR":0.00065079,"MEAN_MOTION_DOT":0.000177,"MEAN_MOTION_DDOT":0},{"OBJECT_NAME":"STARLINK-36414","OBJECT_ID":"2026-008Z","EPOCH":"2026-02-22T16:53:49.495776","MEAN_MOTION":15.27579941,"ECCENTRICITY":0.0001807,"INCLINATION":42.9991,"RA_OF_ASC_NODE":289.5589,"ARG_OF_PERICENTER":263.8615,"MEAN_ANOMALY":96.2031,"EPHEMERIS_TYPE":0,"CLASSIFICATION_TYPE":"U","NORAD_CAT_ID":67468,"ELEMENT_SET_NO":999,"REV_AT_EPOCH":728,"BSTAR":0.00069884,"MEAN_MOTION_DOT":0.00019018,"MEAN_MOTION_DDOT":0},{"OBJECT_NAME":"STARLINK-36441","OBJECT_ID":"2026-008AA","EPOCH":"2026-02-20T01:38:10.196448","MEAN_MOTION":15.27590771,"ECCENTRICITY":0.00025772,"INCLINATION":42.9998,"RA_OF_ASC_NODE":305.0449,"ARG_OF_PERICENTER":251.8985,"MEAN_ANOMALY":108.1586,"EPHEMERIS_TYPE":0,"CLASSIFICATION_TYPE":"U","NORAD_CAT_ID":67469,"ELEMENT_SET_NO":999,"REV_AT_EPOCH":687,"BSTAR":0.00066484736,"MEAN_MOTION_DOT":0.00018085,"MEAN_MOTION_DDOT":0},{"OBJECT_NAME":"STARLINK-36454","OBJECT_ID":"2026-008AB","EPOCH":"2026-02-22T17:04:55.462656","MEAN_MOTION":15.27595071,"ECCENTRICITY":0.0001495,"INCLINATION":42.9996,"RA_OF_ASC_NODE":289.6166,"ARG_OF_PERICENTER":252.5656,"MEAN_ANOMALY":107.5032,"EPHEMERIS_TYPE":0,"CLASSIFICATION_TYPE":"U","NORAD_CAT_ID":67470,"ELEMENT_SET_NO":999,"REV_AT_EPOCH":728,"BSTAR":0.0010796,"MEAN_MOTION_DOT":0.00029579,"MEAN_MOTION_DDOT":0},{"OBJECT_NAME":"STARLINK-36334","OBJECT_ID":"2026-008AC","EPOCH":"2026-02-22T16:33:43.078752","MEAN_MOTION":15.28298266,"ECCENTRICITY":0.0002578,"INCLINATION":42.9965,"RA_OF_ASC_NODE":290.3147,"ARG_OF_PERICENTER":256.6047,"MEAN_ANOMALY":103.4517,"EPHEMERIS_TYPE":0,"CLASSIFICATION_TYPE":"U","NORAD_CAT_ID":67471,"ELEMENT_SET_NO":999,"REV_AT_EPOCH":727,"BSTAR":-0.001887,"MEAN_MOTION_DOT":-0.00052972,"MEAN_MOTION_DDOT":0},{"OBJECT_NAME":"STARLINK-36269","OBJECT_ID":"2026-008AD","EPOCH":"2026-02-22T20:00:03.000384","MEAN_MOTION":15.27576572,"ECCENTRICITY":8.32e-5,"INCLINATION":42.9981,"RA_OF_ASC_NODE":289.3216,"ARG_OF_PERICENTER":255.5121,"MEAN_ANOMALY":251.3827,"EPHEMERIS_TYPE":0,"CLASSIFICATION_TYPE":"U","NORAD_CAT_ID":67472,"ELEMENT_SET_NO":999,"REV_AT_EPOCH":609,"BSTAR":-0.00015856,"MEAN_MOTION_DOT":-4.622e-5,"MEAN_MOTION_DDOT":0},{"OBJECT_NAME":"STARLINK-36408","OBJECT_ID":"2026-008AE","EPOCH":"2026-02-22T00:20:39.454656","MEAN_MOTION":15.27596583,"ECCENTRICITY":0.0001244,"INCLINATION":42.9984,"RA_OF_ASC_NODE":293.8447,"ARG_OF_PERICENTER":264.9466,"MEAN_ANOMALY":95.1244,"EPHEMERIS_TYPE":0,"CLASSIFICATION_TYPE":"U","NORAD_CAT_ID":67473,"ELEMENT_SET_NO":999,"REV_AT_EPOCH":717,"BSTAR":0.00045497,"MEAN_MOTION_DOT":0.00012285,"MEAN_MOTION_DDOT":0},{"OBJECT_NAME":"STARLINK-36551","OBJECT_ID":"2026-012A","EPOCH":"2026-02-22T05:35:20.046624","MEAN_MOTION":15.27608597,"ECCENTRICITY":8.24e-5,"INCLINATION":43.0001,"RA_OF_ASC_NODE":42.0671,"ARG_OF_PERICENTER":249.3778,"MEAN_ANOMALY":110.6986,"EPHEMERIS_TYPE":0,"CLASSIFICATION_TYPE":"U","NORAD_CAT_ID":67493,"ELEMENT_SET_NO":999,"REV_AT_EPOCH":539,"BSTAR":0.00097742,"MEAN_MOTION_DOT":0.00026755,"MEAN_MOTION_DDOT":0},{"OBJECT_NAME":"STARLINK-36396","OBJECT_ID":"2026-012B","EPOCH":"2026-02-22T20:00:03.000384","MEAN_MOTION":15.27529199,"ECCENTRICITY":7.61e-5,"INCLINATION":43.0011,"RA_OF_ASC_NODE":38.4362,"ARG_OF_PERICENTER":227.6017,"MEAN_ANOMALY":304.7577,"EPHEMERIS_TYPE":0,"CLASSIFICATION_TYPE":"U","NORAD_CAT_ID":67494,"ELEMENT_SET_NO":999,"REV_AT_EPOCH":612,"BSTAR":0.002207,"MEAN_MOTION_DOT":0.00060878,"MEAN_MOTION_DDOT":0},{"OBJECT_NAME":"STARLINK-36550","OBJECT_ID":"2026-012C","EPOCH":"2026-02-22T00:42:13.196160","MEAN_MOTION":15.28428294,"ECCENTRICITY":0.0001016,"INCLINATION":42.9993,"RA_OF_ASC_NODE":43.1237,"ARG_OF_PERICENTER":194.1107,"MEAN_ANOMALY":165.9717,"EPHEMERIS_TYPE":0,"CLASSIFICATION_TYPE":"U","NORAD_CAT_ID":67495,"ELEMENT_SET_NO":999,"REV_AT_EPOCH":536,"BSTAR":0.00069457,"MEAN_MOTION_DOT":0.00019402,"MEAN_MOTION_DDOT":0},{"OBJECT_NAME":"STARLINK-36534","OBJECT_ID":"2026-012D","EPOCH":"2026-02-22T16:14:04.854048","MEAN_MOTION":15.27592814,"ECCENTRICITY":3.91e-5,"INCLINATION":43.0007,"RA_OF_ASC_NODE":39.3748,"ARG_OF_PERICENTER":324.9656,"MEAN_ANOMALY":35.1169,"EPHEMERIS_TYPE":0,"CLASSIFICATION_TYPE":"U","NORAD_CAT_ID":67496,"ELEMENT_SET_NO":999,"REV_AT_EPOCH":546,"BSTAR":0.0014822,"MEAN_MOTION_DOT":0.00040766,"MEAN_MOTION_DDOT":0},{"OBJECT_NAME":"STARLINK-36555","OBJECT_ID":"2026-012E","EPOCH":"2026-02-22T16:17:46.812192","MEAN_MOTION":15.27595312,"ECCENTRICITY":1.79e-5,"INCLINATION":42.9984,"RA_OF_ASC_NODE":39.3953,"ARG_OF_PERICENTER":290.1846,"MEAN_ANOMALY":69.8986,"EPHEMERIS_TYPE":0,"CLASSIFICATION_TYPE":"U","NORAD_CAT_ID":67497,"ELEMENT_SET_NO":999,"REV_AT_EPOCH":546,"BSTAR":0.00097823,"MEAN_MOTION_DOT":0.00026767,"MEAN_MOTION_DDOT":0},{"OBJECT_NAME":"STARLINK-36081","OBJECT_ID":"2026-012F","EPOCH":"2026-02-22T20:00:03.000384","MEAN_MOTION":15.27568925,"ECCENTRICITY":0.000151,"INCLINATION":43.0011,"RA_OF_ASC_NODE":38.4438,"ARG_OF_PERICENTER":258.9039,"MEAN_ANOMALY":266.3702,"EPHEMERIS_TYPE":0,"CLASSIFICATION_TYPE":"U","NORAD_CAT_ID":67498,"ELEMENT_SET_NO":999,"REV_AT_EPOCH":612,"BSTAR":0.0021685,"MEAN_MOTION_DOT":0.00059875,"MEAN_MOTION_DDOT":0},{"OBJECT_NAME":"STARLINK-36558","OBJECT_ID":"2026-012G","EPOCH":"2026-02-22T20:00:03.000384","MEAN_MOTION":15.27570468,"ECCENTRICITY":0.000133,"INCLINATION":43.0011,"RA_OF_ASC_NODE":38.3937,"ARG_OF_PERICENTER":266.0161,"MEAN_ANOMALY":280.4805,"EPHEMERIS_TYPE":0,"CLASSIFICATION_TYPE":"U","NORAD_CAT_ID":67499,"ELEMENT_SET_NO":999,"REV_AT_EPOCH":603,"BSTAR":0.0018073,"MEAN_MOTION_DOT":0.00049792,"MEAN_MOTION_DDOT":0},{"OBJECT_NAME":"STARLINK-36557","OBJECT_ID":"2026-012H","EPOCH":"2026-02-22T15:57:25.431552","MEAN_MOTION":15.27602452,"ECCENTRICITY":4.38e-5,"INCLINATION":42.9969,"RA_OF_ASC_NODE":39.2798,"ARG_OF_PERICENTER":309.4646,"MEAN_ANOMALY":50.6167,"EPHEMERIS_TYPE":0,"CLASSIFICATION_TYPE":"U","NORAD_CAT_ID":67500,"ELEMENT_SET_NO":999,"REV_AT_EPOCH":546,"BSTAR":0.0012086,"MEAN_MOTION_DOT":0.00033169,"MEAN_MOTION_DDOT":0},{"OBJECT_NAME":"STARLINK-36433","OBJECT_ID":"2026-012J","EPOCH":"2026-02-22T06:26:56.274432","MEAN_MOTION":15.27572441,"ECCENTRICITY":0.0002007,"INCLINATION":43.0063,"RA_OF_ASC_NODE":41.4679,"ARG_OF_PERICENTER":283.3852,"MEAN_ANOMALY":76.6775,"EPHEMERIS_TYPE":0,"CLASSIFICATION_TYPE":"U","NORAD_CAT_ID":67501,"ELEMENT_SET_NO":999,"REV_AT_EPOCH":540,"BSTAR":0.00078248,"MEAN_MOTION_DOT":0.00021328,"MEAN_MOTION_DDOT":0},{"OBJECT_NAME":"STARLINK-36552","OBJECT_ID":"2026-012L","EPOCH":"2026-02-22T15:37:03.580896","MEAN_MOTION":15.27580429,"ECCENTRICITY":6.9e-5,"INCLINATION":43.0002,"RA_OF_ASC_NODE":39.1662,"ARG_OF_PERICENTER":300.3121,"MEAN_ANOMALY":59.7662,"EPHEMERIS_TYPE":0,"CLASSIFICATION_TYPE":"U","NORAD_CAT_ID":67503,"ELEMENT_SET_NO":999,"REV_AT_EPOCH":546,"BSTAR":0.0019272,"MEAN_MOTION_DOT":0.00053153,"MEAN_MOTION_DDOT":0},{"OBJECT_NAME":"STARLINK-36512","OBJECT_ID":"2026-012M","EPOCH":"2026-02-22T20:00:03.000384","MEAN_MOTION":15.27536152,"ECCENTRICITY":0.0001336,"INCLINATION":43.0009,"RA_OF_ASC_NODE":38.0374,"ARG_OF_PERICENTER":253.1633,"MEAN_ANOMALY":74.8762,"EPHEMERIS_TYPE":0,"CLASSIFICATION_TYPE":"U","NORAD_CAT_ID":67504,"ELEMENT_SET_NO":999,"REV_AT_EPOCH":587,"BSTAR":0.0017918,"MEAN_MOTION_DOT":0.00049308,"MEAN_MOTION_DDOT":0},{"OBJECT_NAME":"STARLINK-36545","OBJECT_ID":"2026-012N","EPOCH":"2026-02-22T15:20:24.426240","MEAN_MOTION":15.2760552,"ECCENTRICITY":0.0001503,"INCLINATION":43.0012,"RA_OF_ASC_NODE":39.0835,"ARG_OF_PERICENTER":282.2704,"MEAN_ANOMALY":77.7979,"EPHEMERIS_TYPE":0,"CLASSIFICATION_TYPE":"U","NORAD_CAT_ID":67505,"ELEMENT_SET_NO":999,"REV_AT_EPOCH":546,"BSTAR":0.00088935,"MEAN_MOTION_DOT":0.00024311,"MEAN_MOTION_DDOT":0},{"OBJECT_NAME":"STARLINK-36553","OBJECT_ID":"2026-012P","EPOCH":"2026-02-22T00:00:02.998944","MEAN_MOTION":15.27611766,"ECCENTRICITY":0.0001081,"INCLINATION":43.0009,"RA_OF_ASC_NODE":42.6386,"ARG_OF_PERICENTER":250.4521,"MEAN_ANOMALY":211.8364,"EPHEMERIS_TYPE":0,"CLASSIFICATION_TYPE":"U","NORAD_CAT_ID":67506,"ELEMENT_SET_NO":999,"REV_AT_EPOCH":599,"BSTAR":0.0012148,"MEAN_MOTION_DOT":0.00033349,"MEAN_MOTION_DDOT":0},{"OBJECT_NAME":"STARLINK-36521","OBJECT_ID":"2026-012Q","EPOCH":"2026-02-22T20:00:03.000384","MEAN_MOTION":15.27537812,"ECCENTRICITY":0.0001659,"INCLINATION":43.0015,"RA_OF_ASC_NODE":37.897,"ARG_OF_PERICENTER":251.5757,"MEAN_ANOMALY":133.0613,"EPHEMERIS_TYPE":0,"CLASSIFICATION_TYPE":"U","NORAD_CAT_ID":67507,"ELEMENT_SET_NO":999,"REV_AT_EPOCH":613,"BSTAR":0.0018954,"MEAN_MOTION_DOT":0.00052197,"MEAN_MOTION_DDOT":0},{"OBJECT_NAME":"STARLINK-36526","OBJECT_ID":"2026-012R","EPOCH":"2026-02-22T00:00:02.998944","MEAN_MOTION":15.27603077,"ECCENTRICITY":0.0001415,"INCLINATION":43.0014,"RA_OF_ASC_NODE":42.5519,"ARG_OF_PERICENTER":273.1437,"MEAN_ANOMALY":224.5385,"EPHEMERIS_TYPE":0,"CLASSIFICATION_TYPE":"U","NORAD_CAT_ID":67508,"ELEMENT_SET_NO":999,"REV_AT_EPOCH":599,"BSTAR":0.00099447,"MEAN_MOTION_DOT":0.00027224,"MEAN_MOTION_DDOT":0},{"OBJECT_NAME":"STARLINK-36541","OBJECT_ID":"2026-012S","EPOCH":"2026-02-22T20:00:03.000384","MEAN_MOTION":15.27543084,"ECCENTRICITY":0.0002051,"INCLINATION":43.0018,"RA_OF_ASC_NODE":38.6724,"ARG_OF_PERICENTER":257.6778,"MEAN_ANOMALY":175.6355,"EPHEMERIS_TYPE":0,"CLASSIFICATION_TYPE":"U","NORAD_CAT_ID":67509,"ELEMENT_SET_NO":999,"REV_AT_EPOCH":603,"BSTAR":0.0016962,"MEAN_MOTION_DOT":0.00046658,"MEAN_MOTION_DDOT":0}]
